[{"OBJECT_NAME":"STARLINK-30404","OBJECT_ID":"2023-141P","EPOCH":"2025-11-12T03:00:25.909632","MEAN_MOTION":15.30188701,"ECCENTRICITY":0.00023332,"INCLINATION":53.1612,"RA_OF_ASC_NODE":109.8286,"ARG_OF_PERICENTER":103.1045,"MEAN_ANOMALY":257.0216,"EPHEMERIS_TYPE":0,"CLASSIFICATION_TYPE":"U","NORAD_CAT_ID":57853,"ELEMENT_SET_NO":999,"REV_AT_EPOCH":12233,"BSTAR":8.194619e-6,"MEAN_MOTION_DOT":-1.17e-6,"MEAN_MOTION_DDOT":0},{"OBJECT_NAME":"STARLINK-30412","OBJECT_ID":"2023-141Q","EPOCH":"2025-11-12T03:15:37.229184","MEAN_MOTION":15.30191757,"ECCENTRICITY":7.208e-5,"INCLINATION":53.1612,"RA_OF_ASC_NODE":109.8931,"ARG_OF_PERICENTER":115.8663,"MEAN_ANOMALY":244.2412,"EPHEMERIS_TYPE":0,"CLASSIFICATION_TYPE":"U","NORAD_CAT_ID":57854,"ELEMENT_SET_NO":999,"REV_AT_EPOCH":12233,"BSTAR":4.016012e-6,"MEAN_MOTION_DOT":-2.4e-6,"MEAN_MOTION_DDOT":0},{"OBJECT_NAME":"STARLINK-30392","OBJECT_ID":"2023-141R","EPOCH":"2025-11-12T03:11:03.586560","MEAN_MOTION":15.30193924,"ECCENTRICITY":0.00012081,"INCLINATION":53.1645,"RA_OF_ASC_NODE":109.8707,"ARG_OF_PERICENTER":84.7897,"MEAN_ANOMALY":275.3241,"EPHEMERIS_TYPE":0,"CLASSIFICATION_TYPE":"U","NORAD_CAT_ID":57855,"ELEMENT_SET_NO":999,"REV_AT_EPOCH":12233,"BSTAR":8.850761e-6,"MEAN_MOTION_DOT":-9.7e-7,"MEAN_MOTION_DDOT":0},{"OBJECT_NAME":"STARLINK-30291","OBJECT_ID":"2023-141S","EPOCH":"2025-11-11T16:46:07.373280","MEAN_MOTION":15.30195086,"ECCENTRICITY":6.669e-5,"INCLINATION":53.1685,"RA_OF_ASC_NODE":112.1365,"ARG_OF_PERICENTER":292.7895,"MEAN_ANOMALY":67.3036,"EPHEMERIS_TYPE":0,"CLASSIFICATION_TYPE":"U","NORAD_CAT_ID":57856,"ELEMENT_SET_NO":999,"REV_AT_EPOCH":12226,"BSTAR":8.5008351e-5,"MEAN_MOTION_DOT":2.159e-5,"MEAN_MOTION_DDOT":0},{"OBJECT_NAME":"STARLINK-30424","OBJECT_ID":"2023-141T","EPOCH":"2025-11-12T02:11:47.358240","MEAN_MOTION":15.30193487,"ECCENTRICITY":9.273e-5,"INCLINATION":53.1642,"RA_OF_ASC_NODE":84.3557,"ARG_OF_PERICENTER":82.2378,"MEAN_ANOMALY":277.8728,"EPHEMERIS_TYPE":0,"CLASSIFICATION_TYPE":"U","NORAD_CAT_ID":57857,"ELEMENT_SET_NO":999,"REV_AT_EPOCH":12268,"BSTAR":1.2786086e-5,"MEAN_MOTION_DOT":2.0e-7,"MEAN_MOTION_DDOT":0},{"OBJECT_NAME":"STARLINK-30290","OBJECT_ID":"2023-141U","EPOCH":"2025-11-11T11:44:14.080704","MEAN_MOTION":15.30168613,"ECCENTRICITY":5.045e-5,"INCLINATION":53.1583,"RA_OF_ASC_NODE":112.9636,"ARG_OF_PERICENTER":96.4366,"MEAN_ANOMALY":263.6693,"EPHEMERIS_TYPE":0,"CLASSIFICATION_TYPE":"U","NORAD_CAT_ID":57858,"ELEMENT_SET_NO":999,"REV_AT_EPOCH":12223,"BSTAR":-8.420806e-6,"MEAN_MOTION_DOT":-6.08e-6,"MEAN_MOTION_DDOT":0},{"OBJECT_NAME":"STARLINK-30414","OBJECT_ID":"2023-141V","EPOCH":"2025-11-11T11:39:38.669472","MEAN_MOTION":15.30179342,"ECCENTRICITY":0.00010058,"INCLINATION":53.1578,"RA_OF_ASC_NODE":112.9422,"ARG_OF_PERICENTER":97.9362,"MEAN_ANOMALY":262.1753,"EPHEMERIS_TYPE":0,"CLASSIFICATION_TYPE":"U","NORAD_CAT_ID":57859,"ELEMENT_SET_NO":999,"REV_AT_EPOCH":12223,"BSTAR":0.00012461193,"MEAN_MOTION_DOT":3.331e-5,"MEAN_MOTION_DDOT":0},{"OBJECT_NAME":"STARLINK-30272","OBJECT_ID":"2023-141W","EPOCH":"2025-11-11T16:50:40.433568","MEAN_MOTION":15.30193654,"ECCENTRICITY":0.00014643,"INCLINATION":53.1611,"RA_OF_ASC_NODE":112.1547,"ARG_OF_PERICENTER":82.2273,"MEAN_ANOMALY":277.8894,"EPHEMERIS_TYPE":0,"CLASSIFICATION_TYPE":"U","NORAD_CAT_ID":57860,"ELEMENT_SET_NO":999,"REV_AT_EPOCH":12226,"BSTAR":9.958029e-6,"MEAN_MOTION_DOT":-6.4e-7,"MEAN_MOTION_DDOT":0},{"OBJECT_NAME":"STARLINK-30432","OBJECT_ID":"2023-144A","EPOCH":"2025-11-12T01:50:56.199840","MEAN_MOTION":15.02536781,"ECCENTRICITY":9.171e-5,"INCLINATION":43.0034,"RA_OF_ASC_NODE":206.9834,"ARG_OF_PERICENTER":285.3783,"MEAN_ANOMALY":74.6958,"EPHEMERIS_TYPE":0,"CLASSIFICATION_TYPE":"U","NORAD_CAT_ID":57864,"ELEMENT_SET_NO":999,"REV_AT_EPOCH":11987,"BSTAR":2.7100118e-5,"MEAN_MOTION_DOT":1.63e-6,"MEAN_MOTION_DDOT":0},{"OBJECT_NAME":"STARLINK-30427","OBJECT_ID":"2023-144B","EPOCH":"2025-11-12T01:46:07.687776","MEAN_MOTION":15.02545337,"ECCENTRICITY":0.00010638,"INCLINATION":43.0017,"RA_OF_ASC_NODE":206.9535,"ARG_OF_PERICENTER":269.8451,"MEAN_ANOMALY":90.2269,"EPHEMERIS_TYPE":0,"CLASSIFICATION_TYPE":"U","NORAD_CAT_ID":57865,"ELEMENT_SET_NO":999,"REV_AT_EPOCH":11987,"BSTAR":-0.00010241563,"MEAN_MOTION_DOT":-1.587e-5,"MEAN_MOTION_DDOT":0},{"OBJECT_NAME":"STARLINK-30393","OBJECT_ID":"2023-144C","EPOCH":"2025-11-12T02:00:21.387168","MEAN_MOTION":15.02535687,"ECCENTRICITY":9.758e-5,"INCLINATION":43.0035,"RA_OF_ASC_NODE":206.1711,"ARG_OF_PERICENTER":281.4511,"MEAN_ANOMALY":78.6222,"EPHEMERIS_TYPE":0,"CLASSIFICATION_TYPE":"U","NORAD_CAT_ID":57866,"ELEMENT_SET_NO":999,"REV_AT_EPOCH":11988,"BSTAR":2.3934677e-5,"MEAN_MOTION_DOT":1.2e-6,"MEAN_MOTION_DDOT":0},{"OBJECT_NAME":"STARLINK-30439","OBJECT_ID":"2023-144D","EPOCH":"2025-11-12T01:41:20.946912","MEAN_MOTION":15.0253526,"ECCENTRICITY":0.00012318,"INCLINATION":43.0045,"RA_OF_ASC_NODE":206.9328,"ARG_OF_PERICENTER":270.0569,"MEAN_ANOMALY":90.0133,"EPHEMERIS_TYPE":0,"CLASSIFICATION_TYPE":"U","NORAD_CAT_ID":57867,"ELEMENT_SET_NO":999,"REV_AT_EPOCH":11992,"BSTAR":-1.0894186e-5,"MEAN_MOTION_DOT":-3.51e-6,"MEAN_MOTION_DDOT":0},{"OBJECT_NAME":"STARLINK-30442","OBJECT_ID":"2023-144E","EPOCH":"2025-11-12T01:36:32.605920","MEAN_MOTION":15.02529442,"ECCENTRICITY":9.076e-5,"INCLINATION":43.0016,"RA_OF_ASC_NODE":206.8664,"ARG_OF_PERICENTER":269.6479,"MEAN_ANOMALY":90.4259,"EPHEMERIS_TYPE":0,"CLASSIFICATION_TYPE":"U","NORAD_CAT_ID":57868,"ELEMENT_SET_NO":999,"REV_AT_EPOCH":11987,"BSTAR":2.2351482e-5,"MEAN_MOTION_DOT":9.8e-7,"MEAN_MOTION_DDOT":0},{"OBJECT_NAME":"STARLINK-30441","OBJECT_ID":"2023-144F","EPOCH":"2025-11-12T01:55:42.981312","MEAN_MOTION":15.02536723,"ECCENTRICITY":0.00011433,"INCLINATION":43.0027,"RA_OF_ASC_NODE":206.9556,"ARG_OF_PERICENTER":269.1149,"MEAN_ANOMALY":90.9563,"EPHEMERIS_TYPE":0,"CLASSIFICATION_TYPE":"U","NORAD_CAT_ID":57869,"ELEMENT_SET_NO":999,"REV_AT_EPOCH":11987,"BSTAR":3.563418e-5,"MEAN_MOTION_DOT":2.78e-6,"MEAN_MOTION_DDOT":0},{"OBJECT_NAME":"STARLINK-30460","OBJECT_ID":"2023-144G","EPOCH":"2025-11-12T01:31:45.525504","MEAN_MOTION":15.02528336,"ECCENTRICITY":0.0001035,"INCLINATION":43.0033,"RA_OF_ASC_NODE":206.8825,"ARG_OF_PERICENTER":275.8524,"MEAN_ANOMALY":84.22,"EPHEMERIS_TYPE":0,"CLASSIFICATION_TYPE":"U","NORAD_CAT_ID":57870,"ELEMENT_SET_NO":999,"REV_AT_EPOCH":11992,"BSTAR":0.00016006324,"MEAN_MOTION_DOT":1.959e-5,"MEAN_MOTION_DDOT":0},{"OBJECT_NAME":"STARLINK-30444","OBJECT_ID":"2023-144H","EPOCH":"2025-11-12T01:22:12.730656","MEAN_MOTION":15.02513296,"ECCENTRICITY":7.77e-5,"INCLINATION":43.0018,"RA_OF_ASC_NODE":206.8302,"ARG_OF_PERICENTER":277.1313,"MEAN_ANOMALY":82.9441,"EPHEMERIS_TYPE":0,"CLASSIFICATION_TYPE":"U","NORAD_CAT_ID":57871,"ELEMENT_SET_NO":999,"REV_AT_EPOCH":11964,"BSTAR":-0.00014104878,"MEAN_MOTION_DOT":-2.107e-5,"MEAN_MOTION_DDOT":0},{"OBJECT_NAME":"STARLINK-30446","OBJECT_ID":"2023-144J","EPOCH":"2025-11-12T02:00:44.792928","MEAN_MOTION":15.0254793,"ECCENTRICITY":0.00010279,"INCLINATION":43.0028,"RA_OF_ASC_NODE":193.3903,"ARG_OF_PERICENTER":271.6835,"MEAN_ANOMALY":88.389,"EPHEMERIS_TYPE":0,"CLASSIFICATION_TYPE":"U","NORAD_CAT_ID":57872,"ELEMENT_SET_NO":999,"REV_AT_EPOCH":11980,"BSTAR":0.00020273254,"MEAN_MOTION_DOT":2.537e-5,"MEAN_MOTION_DDOT":0},{"OBJECT_NAME":"STARLINK-30445","OBJECT_ID":"2023-144K","EPOCH":"2025-11-12T01:26:57.498144","MEAN_MOTION":15.02535847,"ECCENTRICITY":0.00014154,"INCLINATION":43.0043,"RA_OF_ASC_NODE":206.8611,"ARG_OF_PERICENTER":268.8216,"MEAN_ANOMALY":91.2464,"EPHEMERIS_TYPE":0,"CLASSIFICATION_TYPE":"U","NORAD_CAT_ID":57873,"ELEMENT_SET_NO":999,"REV_AT_EPOCH":11987,"BSTAR":-2.1302718e-5,"MEAN_MOTION_DOT":-4.91e-6,"MEAN_MOTION_DDOT":0},{"OBJECT_NAME":"STARLINK-30447","OBJECT_ID":"2023-144L","EPOCH":"2025-11-12T00:39:54.163872","MEAN_MOTION":15.0254024,"ECCENTRICITY":8.191e-5,"INCLINATION":43.0026,"RA_OF_ASC_NODE":181.3405,"ARG_OF_PERICENTER":307.0234,"MEAN_ANOMALY":53.0533,"EPHEMERIS_TYPE":0,"CLASSIFICATION_TYPE":"U","NORAD_CAT_ID":57874,"ELEMENT_SET_NO":999,"REV_AT_EPOCH":12020,"BSTAR":-6.0975986e-5,"MEAN_MOTION_DOT":-1.027e-5,"MEAN_MOTION_DDOT":0},{"OBJECT_NAME":"STARLINK-30434","OBJECT_ID":"2023-144M","EPOCH":"2025-11-12T01:12:34.529760","MEAN_MOTION":15.02537417,"ECCENTRICITY":0.00012339,"INCLINATION":43.0035,"RA_OF_ASC_NODE":206.7812,"ARG_OF_PERICENTER":272.166,"MEAN_ANOMALY":87.9041,"EPHEMERIS_TYPE":0,"CLASSIFICATION_TYPE":"U","NORAD_CAT_ID":57875,"ELEMENT_SET_NO":999,"REV_AT_EPOCH":11992,"BSTAR":6.5511324e-5,"MEAN_MOTION_DOT":6.81e-6,"MEAN_MOTION_DDOT":0},{"OBJECT_NAME":"STARLINK-30429","OBJECT_ID":"2023-144N","EPOCH":"2025-11-12T01:07:46.894656","MEAN_MOTION":15.02536838,"ECCENTRICITY":0.00010448,"INCLINATION":43.0022,"RA_OF_ASC_NODE":206.7566,"ARG_OF_PERICENTER":266.5117,"MEAN_ANOMALY":93.5606,"EPHEMERIS_TYPE":0,"CLASSIFICATION_TYPE":"U","NORAD_CAT_ID":57876,"ELEMENT_SET_NO":999,"REV_AT_EPOCH":11991,"BSTAR":2.6069546e-5,"MEAN_MOTION_DOT":1.49e-6,"MEAN_MOTION_DDOT":0},{"OBJECT_NAME":"STARLINK-30284","OBJECT_ID":"2023-144P","EPOCH":"2025-11-11T21:43:12.099360","MEAN_MOTION":15.02530367,"ECCENTRICITY":7.138e-5,"INCLINATION":43.0049,"RA_OF_ASC_NODE":169.1652,"ARG_OF_PERICENTER":276.7693,"MEAN_ANOMALY":83.3068,"EPHEMERIS_TYPE":0,"CLASSIFICATION_TYPE":"U","NORAD_CAT_ID":57877,"ELEMENT_SET_NO":999,"REV_AT_EPOCH":12033,"BSTAR":0.00022147001,"MEAN_MOTION_DOT":2.789e-5,"MEAN_MOTION_DDOT":0},{"OBJECT_NAME":"STARLINK-30433","OBJECT_ID":"2023-144Q","EPOCH":"2025-11-12T02:38:42.373824","MEAN_MOTION":15.02539317,"ECCENTRICITY":0.0001833,"INCLINATION":43.0066,"RA_OF_ASC_NODE":206.3661,"ARG_OF_PERICENTER":252.0485,"MEAN_ANOMALY":108.0158,"EPHEMERIS_TYPE":0,"CLASSIFICATION_TYPE":"U","NORAD_CAT_ID":57878,"ELEMENT_SET_NO":999,"REV_AT_EPOCH":11992,"BSTAR":-1.6563836e-5,"MEAN_MOTION_DOT":-4.28e-6,"MEAN_MOTION_DDOT":0}]
